{
    "links": {
        "self": "http://www.neowsapp.com/rest/v1/neo/54017280?api_key=iIulBulltgU6a56xZRHN4H3l9WmuAYTsLGpBGhQ2"
    },
    "id": "54017280",
    "neo_reference_id": "54017280",
    "name": "(2020 KC6)",
    "designation": "2020 KC6",
    "nasa_jpl_url": "http://ssd.jpl.nasa.gov/sbdb.cgi?sstr=54017280",
    "absolute_magnitude_h": 27.251,
    "estimated_diameter": {
        "kilometers": {
            "estimated_diameter_min": 0.0094265978,
            "estimated_diameter_max": 0.0210785134
        },
        "meters": {
            "estimated_diameter_min": 9.4265977774,
            "estimated_diameter_max": 21.0785134268
        },
        "miles": {
            "estimated_diameter_min": 0.0058574145,
            "estimated_diameter_max": 0.013097577
        },
        "feet": {
            "estimated_diameter_min": 30.927159052,
            "estimated_diameter_max": 69.1552299912
        }
    },
    "is_potentially_hazardous_asteroid": false,
    "close_approach_data": [
        {
            "close_approach_date": "2020-05-18",
            "close_approach_date_full": "2020-May-18 01:48",
            "epoch_date_close_approach": 1589766480000,
            "relative_velocity": {
                "kilometers_per_second": "6.5558393091",
                "kilometers_per_hour": "23601.0215127198",
                "miles_per_hour": "14664.7569505008"
            },
            "miss_distance": {
                "astronomical": "0.0228153419",
                "lunar": "8.8751679991",
                "kilometers": "3413126.551561753",
                "miles": "2120818.4954800714"
            },
            "orbiting_body": "Earth"
        }
    ],
    "orbital_data": {
        "orbit_id": "2",
        "orbit_determination_date": "2020-05-30 06:47:26",
        "first_observation_date": "2020-05-23",
        "last_observation_date": "2020-05-29",
        "data_arc_in_days": 6,
        "observations_used": 15,
        "orbit_uncertainty": "8",
        "minimum_orbit_intersection": ".0127158",
        "jupiter_tisserand_invariant": "4.497",
        "epoch_osculation": "2458995.5",
        "eccentricity": ".3390618458829639",
        "semi_major_axis": "1.489924479581504",
        "inclination": "3.72707860732645",
        "ascending_node_longitude": "241.9866537288999",
        "orbital_period": "664.2702620217858",
        "perihelion_distance": ".9847479353083848",
        "perihelion_argument": "321.4701356828202",
        "aphelion_distance": "1.995101023854623",
        "perihelion_time": "2458958.537565057082",
        "mean_anomaly": "20.03172103316898",
        "mean_motion": ".5419480903816122",
        "equinox": "J2000",
        "orbit_class": {
            "orbit_class_type": "APO",
            "orbit_class_description": "Near-Earth asteroid orbits which cross the Earth’s orbit similar to that of 1862 Apollo",
            "orbit_class_range": "a (semi-major axis) > 1.0 AU; q (perihelion) < 1.017 AU"
        }
    },
    "is_sentry_object": false
}